{
    "links": {
        "self": "http://www.neowsapp.com/rest/v1/neo/3774365?api_key=iIulBulltgU6a56xZRHN4H3l9WmuAYTsLGpBGhQ2"
    },
    "id": "3774365",
    "neo_reference_id": "3774365",
    "name": "(2017 HF49)",
    "designation": "2017 HF49",
    "nasa_jpl_url": "http://ssd.jpl.nasa.gov/sbdb.cgi?sstr=3774365",
    "absolute_magnitude_h": 26.2,
    "estimated_diameter": {
        "kilometers": {
            "estimated_diameter_min": 0.0152951935,
            "estimated_diameter_max": 0.0342010925
        },
        "meters": {
            "estimated_diameter_min": 15.2951935344,
            "estimated_diameter_max": 34.201092472
        },
        "miles": {
            "estimated_diameter_min": 0.0095039897,
            "estimated_diameter_max": 0.021251567
        },
        "feet": {
            "estimated_diameter_min": 50.1810827555,
            "estimated_diameter_max": 112.2083122258
        }
    },
    "is_potentially_hazardous_asteroid": false,
    "close_approach_data": [
        {
            "close_approach_date": "2017-04-17",
            "close_approach_date_full": "2017-Apr-17 13:37",
            "epoch_date_close_approach": 1492436220000,
            "relative_velocity": {
                "kilometers_per_second": "14.6463383191",
                "kilometers_per_hour": "52726.8179486164",
                "miles_per_hour": "32762.3941859055"
            },
            "miss_distance": {
                "astronomical": "0.0206690003",
                "lunar": "8.0402411167",
                "kilometers": "3092038.419909361",
                "miles": "1921303.5821007418"
            },
            "orbiting_body": "Earth"
        }
    ],
    "orbital_data": {
        "orbit_id": "1",
        "orbit_determination_date": "2017-05-01 20:43:32",
        "first_observation_date": "2017-04-27",
        "last_observation_date": "2017-05-01",
        "data_arc_in_days": 4,
        "observations_used": 14,
        "orbit_uncertainty": "9",
        "minimum_orbit_intersection": ".0189878",
        "jupiter_tisserand_invariant": "3.384",
        "epoch_osculation": "2457871.5",
        "eccentricity": ".6249412125164816",
        "semi_major_axis": "2.189326939808398",
        "inclination": "5.998344283562253",
        "ascending_node_longitude": "36.76430805135061",
        "orbital_period": "1183.216884858378",
        "perihelion_distance": ".8211263074495396",
        "perihelion_argument": "111.0354544016301",
        "aphelion_distance": "3.557527572167256",
        "perihelion_time": "2457820.513158504017",
        "mean_anomaly": "15.51301639914551",
        "mean_motion": ".3042552930125648",
        "equinox": "J2000",
        "orbit_class": {
            "orbit_class_type": "APO",
            "orbit_class_description": "Near-Earth asteroid orbits which cross the Earth’s orbit similar to that of 1862 Apollo",
            "orbit_class_range": "a (semi-major axis) > 1.0 AU; q (perihelion) < 1.017 AU"
        }
    },
    "is_sentry_object": false
}